{"type":"FeatureCollection","features":[{"type":"Feature","properties":{"wardId":1,"name":"Ward 1"},"geometry":{"type":"Polygon","coordinates":[[[73.9045061852123,18.6168176260326],[73.9072799608508,18.6174451184048],[73.9156055401023,18.618494410514],[73.9236326378738,18.620868350093],[73.9347229096322,18.6199669362294],[73.9411428885188,18.6194618954066],[73.943291765564,18.6201462889774],[73.9461916258215,18.6205020647965],[73.947430428179,18.6194475393816],[73.9458741887872,18.6181526337585],[73.9432555494296,18.6152962937359],[73.9423267851532,18.6131240379121],[73.9388360343578,18.611656368312],[73.9369200438159,18.6097768931941],[73.9335587836248,18.606700803918],[73.9307876245804,18.6031590276994],[73.9276008244643,18.6027421967934],[73.9268467089398,18.5996309402482],[73.9249192402291,18.5977838973607],[73.9236328855697,18.5944902277026],[73.9210859800756,18.5930801621823],[73.9123666805859,18.5871601993427],[73.9104468073527,18.5861221763406],[73.9044685104171,18.5882831406604],[73.9002110276169,18.588743388097],[73.899931645125,18.587372395233],[73.8983179113712,18.5848883113144],[73.8961417755875,18.5832510880481],[73.8947349630481,18.5825330207824],[73.8934039169574,18.5814257242179],[73.8877788563094,18.5795070979742],[73.8868110949562,18.5784791081244],[73.8852077624093,18.5778624429525],[73.8846141325005,18.5765083090674],[73.8827249145948,18.5731324447107],[73.8766143918409,18.5752897749032],[73.8726938647461,18.5769488015079],[73.8679576868977,18.5782485786091],[73.8633341508504,18.5829394370056],[73.8597583420739,18.5873396686909],[73.8626351761724,18.5894555387423],[73.8641807276585,18.5944214547864],[73.8731703841061,18.5996274646359],[73.886554950051,18.5993374701483],[73.8897287411885,18.6112744972203],[73.891849571001,18.6179939518594],[73.8983552720783,18.6198488773239],[73.9033189452132,18.6173165195419],[73.9045061852123,18.6168176260326]]]}},{"type":"Feature","properties":{"wardId":2,"name":"Ward 2"},"geometry":{"type":"Polygon","coordinates":[[[73.8962547089497,18.5832303544111],[73.8991913274676,18.5754143503476],[73.9004972692338,18.571581788269],[73.9008317963504,18.5702074479155],[73.9050404574395,18.5696125765829],[73.9070004452917,18.5704430209523],[73.9065645284801,18.566658171632],[73.9063709789376,18.5569437166793],[73.9067130719797,18.5555956857064],[73.9009474238366,18.5568846525528],[73.8994088510089,18.5566476558764],[73.8972387459013,18.5579258692525],[73.8953633569371,18.5579770606211],[73.8925381279324,18.56217193079],[73.88838274234,18.5677206017248],[73.8877982295663,18.5671689781381],[73.888124810535,18.5657445018688],[73.8850149748402,18.556886963123],[73.8797314058025,18.5532894465697],[73.8742890094303,18.5549924936087],[73.875220234926,18.5576609484941],[73.871817804648,18.5643100716526],[73.8718309581324,18.5685569923115],[73.8712360136129,18.5749865243452],[73.8765441336512,18.5758116990203],[73.8817797793134,18.5729792043269],[73.8846141324179,18.576508309471],[73.8852077620793,18.5778624428276],[73.8868110949156,18.5784791080297],[73.8877788560678,18.5795070977885],[73.8934039167232,18.5814257239866],[73.8947349634352,18.5825330205209],[73.8961417754839,18.583251087644],[73.8962547089497,18.5832303544111]]]}},{"type":"Feature","properties":{"wardId":3,"name":"Ward 3"},"geometry":{"type":"Polygon","coordinates":[[[73.9569507618683,18.6200570919612],[73.9599770515997,18.6200059223355],[73.9656056573752,18.6187266942817],[73.9643708729176,18.6176436623252],[73.965919396663,18.6095875920938],[73.9720565868972,18.6031630568014],[73.981138152593,18.6029879576805],[73.9838273494341,18.6039493175053],[73.9932702137843,18.6071459355409],[74.0003796548987,18.6112468530406],[74.0055042399917,18.6113468187804],[74.0100737494971,18.6042110705998],[74.0099593095451,18.6012810652244],[74.0075186800863,18.5995525161927],[73.9997797797774,18.5932283398324],[73.9956972711345,18.5874786046994],[73.9858712310865,18.581131417532],[73.9835586504514,18.583799438633],[73.9806077550962,18.5851911718292],[73.9794059627566,18.5831472559798],[73.9736380406975,18.5790683244223],[73.9724809602477,18.5783958125953],[73.9709067374891,18.5777165420032],[73.9665481791973,18.5766501148373],[73.9572548128877,18.573320587783],[73.9468973980964,18.5661537061288],[73.9434576621416,18.564548052051],[73.9449342671029,18.5663080711607],[73.9451140172982,18.5713902470625],[73.9412869406398,18.5764399628342],[73.9377325636071,18.573453163233],[73.9345446980794,18.5752098719381],[73.9338372481906,18.5724077004551],[73.9313914861283,18.5746492453664],[73.9313410980133,18.5718236339537],[73.9281099004515,18.5713177374237],[73.9302034889,18.5679321190721],[73.9313837339723,18.567978631109],[73.9342571497479,18.5654773125281],[73.9279761485908,18.5608221218578],[73.9244469778286,18.5579122517464],[73.921377285247,18.5578140905497],[73.9191147134002,18.554670654336],[73.9187716465376,18.5594236158063],[73.9092181219189,18.5574569822541],[73.9057471862863,18.5550605848978],[73.9068484748773,18.5646610131953],[73.9059308457589,18.5680133931114],[73.9050109553845,18.5702555270162],[73.900885822223,18.5700139237038],[73.900757516846,18.5713509206086],[73.8997709911385,18.5724373358145],[73.8956838848096,18.5747504165971],[73.8979305835819,18.583600612084],[73.8993378236493,18.5867796328511],[73.9002110276169,18.588743388097],[73.9044685105058,18.5882831409086],[73.9104468071745,18.5861221763974],[73.9123666802333,18.5871601989754],[73.9210859801138,18.5930801622748],[73.9236328853338,18.5944902279504],[73.9249192405908,18.5977838973879],[73.926846708721,18.5996309401532],[73.9276008248439,18.6027421965177],[73.9307876247664,18.6031590277248],[73.93355878319,18.6067008037423],[73.9369200442667,18.609776893621],[73.9388360340695,18.6116563682499],[73.9423267849432,18.6131240382177],[73.9432555490059,18.6152962938062],[73.9458741886486,18.6181526335096],[73.9474304281588,18.6194475394448],[73.9516584099077,18.6200406442604],[73.9547285586762,18.6205614731336],[73.9569507618683,18.6200570919612]]]}},{"type":"Feature","properties":{"wardId":4,"name":"Ward 4"},"geometry":{"type":"Polygon","coordinates":[[[74.0157297340402,18.5904163870067],[73.9992796975999,18.5636737734259],[73.9937305837995,18.5637888659635],[73.9897352224028,18.5670443452204],[73.9823528469065,18.5680555168487],[73.9775929412613,18.5608622220141],[73.9753404129298,18.5557817008649],[73.9752039453061,18.5521878489902],[73.970613390096,18.5429981887156],[73.9651516012695,18.5439146779397],[73.9607168063228,18.5456934738643],[73.9571240684211,18.5465574247854],[73.9520261417931,18.5455739666653],[73.9456685860366,18.545187005476],[73.9429582562313,18.5429134113051],[73.9393359179772,18.5360155543006],[73.9316956116633,18.5359528710281],[73.9319472876056,18.5388234123924],[73.9289827113832,18.5501323962932],[73.9279462193427,18.5626527362349],[73.9341502752151,18.5674143011291],[73.9312441969623,18.568129796353],[73.9301853198967,18.5682046514236],[73.9286730073535,18.5710101369085],[73.9304806230824,18.5726569763385],[73.9321899438109,18.5745368409027],[73.9341218926113,18.5721412250376],[73.9345233643619,18.5756183853802],[73.940722845383,18.573765440223],[73.9467056041804,18.576246161631],[73.9465796343426,18.5696278744269],[73.9446474418261,18.5661220221137],[73.9436114623992,18.5644761125826],[73.9486125518279,18.5674104996949],[73.960099768937,18.5745807330696],[73.9674697624221,18.576812599674],[73.9720065106392,18.578161702539],[73.9728214220444,18.5786200837493],[73.9775480940646,18.5803866824856],[73.979980207896,18.5845672925738],[73.9820627016681,18.585495385392],[73.9854782562305,18.5843561767982],[73.9890988206619,18.5827006910089],[73.998393872601,18.591157996945],[74.0027683167652,18.5968368531237],[74.0095470037317,18.6008849669835],[74.0131963789099,18.6018447647241],[74.0149557855811,18.6006409610116],[74.0160535196543,18.5957348282998],[74.0183110994778,18.5945103995354],[74.0171683930071,18.592315417023],[74.0157297340402,18.5904163870067]]]}},{"type":"Feature","properties":{"wardId":5,"name":"Ward 5"},"geometry":{"type":"Polygon","coordinates":[[[73.9191147135886,18.5546706540207],[73.9213772851898,18.5578140901429],[73.9244469775236,18.5579122513643],[73.9282046812046,18.5562870892867],[73.9312932360941,18.5423626737985],[73.9319050905249,18.536976487539],[73.9176789626142,18.5390192696236],[73.9116590959907,18.539892733463],[73.9008395835801,18.5411547323052],[73.8909445697362,18.5436640827313],[73.8895563343748,18.5460271769105],[73.8942339725725,18.5506601361058],[73.8967731073008,18.5534056928597],[73.8957266909094,18.5566465268232],[73.8966329801314,18.5578252811694],[73.8973161406602,18.5590475982917],[73.9007073099643,18.5570251524198],[73.9010728813972,18.5537092772118],[73.9079740168875,18.5566863298104],[73.9159502704887,18.5601325345888],[73.9183849955153,18.5563108235127],[73.9191147135886,18.5546706540207]]]}},{"type":"Feature","properties":{"wardId":6,"name":"Ward 6"},"geometry":{"type":"Polygon","coordinates":[[[73.8850527367078,18.5432655784942],[73.8840884597301,18.5451933557877],[73.8843643934472,18.5481207498189],[73.8847637093946,18.5490196335919],[73.8815221540876,18.5490700166633],[73.8786219260803,18.5489677990938],[73.8797314058025,18.5532894465697],[73.8850149748402,18.556886963123],[73.888124810535,18.5657445018688],[73.8877982295663,18.5671689781381],[73.88838274234,18.5677206017248],[73.8919533713916,18.5609942501807],[73.8947749240112,18.5581013149037],[73.8969312976309,18.5564973366705],[73.8961338025775,18.5520366051638],[73.8914800379173,18.5475528459849],[73.8886231911075,18.5455940368354],[73.8850527367078,18.5432655784942]]]}},{"type":"Feature","properties":{"wardId":7,"name":"Ward 7"},"geometry":{"type":"Polygon","coordinates":[[[73.8265132288277,18.5425490609133],[73.8313063716352,18.5448084286014],[73.8375643742324,18.5445101613971],[73.8496314100137,18.5466411662358],[73.8529533844672,18.5515858426575],[73.8569066394402,18.5505247796365],[73.8539935008716,18.5423115788046],[73.8694002263782,18.542197816572],[73.8734713070482,18.5439448869698],[73.8698653062097,18.547260701762],[73.8796145673917,18.5529025131773],[73.8775180613383,18.5434476393216],[73.873960382767,18.5411828643549],[73.8645246806851,18.5370703666197],[73.8610076846316,18.5321922818697],[73.8578225335586,18.5313282173273],[73.8557795445046,18.5326300145974],[73.8543904824662,18.530395145301],[73.8516593928703,18.532162873925],[73.8495387279843,18.5316601159089],[73.8486723592401,18.5352259605497],[73.8429498839523,18.5320861618605],[73.8314361431553,18.5365182447762],[73.829425100893,18.5229133742425],[73.824534667441,18.5201736955597],[73.819997600309,18.5223840618751],[73.8140807528246,18.5255752099281],[73.810868290839,18.5274216799667],[73.8075556048074,18.5344265128734],[73.8038437627795,18.5377658835887],[73.8154411437939,18.539911878231],[73.8164503003122,18.549428359021],[73.8184514816949,18.5511682294517],[73.8211464039357,18.5475705229779],[73.8249441588756,18.5437422691884],[73.8265132288277,18.5425490609133]]]}},{"type":"Feature","properties":{"wardId":8,"name":"Ward 8"},"geometry":{"type":"Polygon","coordinates":[[[73.8342563881969,18.5463541843351],[73.829787882737,18.5432906373976],[73.8254877628075,18.5430771870879],[73.8223859984003,18.5458799085043],[73.8185641374689,18.5507866303512],[73.8164417420429,18.5534545567447],[73.8172744867335,18.5400539648779],[73.80469938857,18.5395495225907],[73.8044170206586,18.5552023452497],[73.8035504684602,18.5585478788119],[73.799933401145,18.5602200829751],[73.7983613415692,18.5603587750326],[73.7975773881481,18.5599603090451],[73.7971369158761,18.5605753445359],[73.7958626232059,18.5614720195896],[73.7951737455117,18.5620450189529],[73.7946569044605,18.5632312834319],[73.7958186795681,18.5637968819134],[73.7959754883051,18.5655922387853],[73.7962571035825,18.5671629792881],[73.8008655858782,18.5694497232263],[73.8048643476117,18.5691313686178],[73.8129414017243,18.5680057078971],[73.8227412493093,18.5693221049314],[73.8301292257833,18.5696095588341],[73.83246542434,18.5735328503608],[73.8367665705209,18.5754571675145],[73.8439552203572,18.5714699818542],[73.8408010326416,18.567172682973],[73.8392215344464,18.5620395919536],[73.8347189859925,18.5511484161666],[73.8341589709598,18.5479026423931],[73.8342563881969,18.5463541843351]]]}},{"type":"Feature","properties":{"wardId":9,"name":"Ward 9"},"geometry":{"type":"Polygon","coordinates":[[[73.7881539819484,18.5166890722638],[73.7850726189186,18.5182678427846],[73.7827438359482,18.5232256465803],[73.7803491271063,18.5260209931594],[73.7784053283815,18.5272770432474],[73.7722985605894,18.5280888360904],[73.7680656197979,18.5280755113861],[73.7640101302305,18.5281275522427],[73.7581905588499,18.5284263609832],[73.7487876154369,18.5302531552514],[73.7472530653206,18.5295938049068],[73.7391059528776,18.5324664341787],[73.7377584051264,18.5406777507777],[73.7401238847096,18.5453020692352],[73.7401917466518,18.5500911965516],[73.7386503068664,18.5535618592925],[73.7361239745419,18.5615595374428],[73.7319505554738,18.5669281995769],[73.7333431017029,18.5688940447245],[73.7355333034194,18.5700356792034],[73.7383119423424,18.5726304166604],[73.7426759655235,18.574476886699],[73.7460035829991,18.5742187776745],[73.7491398517229,18.5744730861642],[73.7521736525921,18.5762859746181],[73.7537944665415,18.5795730461593],[73.7567634343852,18.5842840097993],[73.7609098585033,18.5882211769658],[73.7675789592017,18.5875407858787],[73.7746529796515,18.588449653329],[73.778561110407,18.5856927555163],[73.7811222536891,18.5781142342846],[73.7873089211699,18.5732816445324],[73.7899853098743,18.5700930091852],[73.7886590283916,18.5681075579176],[73.788324995902,18.5648442689479],[73.7926021355801,18.56342363869],[73.793110410817,18.5642041593945],[73.7947543652219,18.5655502961094],[73.7959739333933,18.5658138427922],[73.7959755068458,18.5640083447698],[73.7948290855983,18.563305587086],[73.7949940381873,18.5623595635065],[73.7957632293173,18.5616353626636],[73.7969396510151,18.5606853571898],[73.7974614908787,18.5600693768251],[73.7980841717598,18.5602060260034],[73.7990411575807,18.560257299523],[73.8031306040338,18.5599749869541],[73.8046967659879,18.5553940089478],[73.804646382414,18.5441230669664],[73.8038437627795,18.5377658835887],[73.8075556048074,18.5344265128734],[73.8108682917384,18.5274216799667],[73.8103476067567,18.5243951069486],[73.8037106909957,18.5242357281963],[73.7988630097202,18.523166608752],[73.7936139709082,18.5179113664165],[73.7914567311434,18.5159759390385],[73.7881539819484,18.5166890722638]]]}},{"type":"Feature","properties":{"wardId":10,"name":"Ward 10"},"geometry":{"type":"Polygon","coordinates":[[[73.8020685586158,18.4975981217639],[73.801353411431,18.4935127395215],[73.7985706068481,18.492476406661],[73.7972701637871,18.4925783232312],[73.7932055725792,18.495259580865],[73.7913856685138,18.4964590633352],[73.7854554678956,18.4998920642674],[73.7808901962256,18.4980204581777],[73.7768719947468,18.4958531819789],[73.7748120004736,18.4906345285607],[73.7726550646797,18.487976731541],[73.7683815852421,18.4863287355828],[73.7651280377288,18.4920562622868],[73.7661861962361,18.4947684134317],[73.764014719304,18.4993130042918],[73.760254703292,18.5028733213468],[73.7610408294707,18.5041330619912],[73.7619143841416,18.5049569830783],[73.7624748906538,18.5058120238563],[73.7596793746036,18.5120463423648],[73.75696377276,18.5152558248964],[73.7532720737474,18.5163974593753],[73.7492701472996,18.5227074733713],[73.747482077436,18.5253990786047],[73.7472530653206,18.5295938049068],[73.7487876154369,18.5302531552514],[73.7581905588499,18.5284263609832],[73.7640101302305,18.5281275522427],[73.7680656197979,18.5280755113861],[73.7722985605894,18.5280888360906],[73.7784053283815,18.5272770432474],[73.7803491271063,18.5260209931594],[73.7827438359484,18.5232256465803],[73.7850726189186,18.5182678427846],[73.7881539804857,18.5166890724533],[73.7921644364397,18.5160728850557],[73.7941776754666,18.5184514180625],[73.7968329258512,18.5149218436959],[73.7989422139121,18.507615349369],[73.8019328419272,18.5028235582607],[73.8020685586158,18.4975981217639]]]}},{"type":"Feature","properties":{"wardId":11,"name":"Ward 11"},"geometry":{"type":"Polygon","coordinates":[[[73.8147637483484,18.5262780597847],[73.8218007940715,18.5212788787173],[73.8269001479236,18.5192236283679],[73.8246235006742,18.5154176390129],[73.8240044946118,18.5133014443063],[73.823630002244,18.5098689968183],[73.8230249325175,18.5080618376759],[73.8206176441891,18.5104245967179],[73.8154867996761,18.509990401336],[73.8115287016882,18.5093793506767],[73.8078626282202,18.507659849229],[73.8058088632885,18.5129713346595],[73.7968329258512,18.5149218436959],[73.7941776754666,18.5184514180625],[73.7988630088209,18.523166608752],[73.8037106909957,18.5242357281963],[73.8103476067567,18.5243951069486],[73.8131396482763,18.5249080982305],[73.8147637483484,18.5262780597847]]]}},{"type":"Feature","properties":{"wardId":12,"name":"Ward 12"},"geometry":{"type":"Polygon","coordinates":[[[73.8347225120493,18.5379834653937],[73.8447164076844,18.5316253491085],[73.8489191655776,18.534056270408],[73.8499886989541,18.5314062928992],[73.8535441807415,18.5300284360616],[73.8535393193632,18.531993500622],[73.8565443183467,18.5318608883457],[73.8597410677715,18.5313152395705],[73.860478627087,18.5280532072897],[73.8516374945748,18.5212603931528],[73.8457606201566,18.517685025044],[73.8442119678082,18.5151317337426],[73.8414956470989,18.5176780330826],[73.8363838551206,18.515937204575],[73.8316125351958,18.5148947833894],[73.8274468143191,18.5195116407498],[73.830214059006,18.537395948952],[73.8347225120493,18.5379834653937]]]}},{"type":"Feature","properties":{"wardId":13,"name":"Ward 13"},"geometry":{"type":"Polygon","coordinates":[[[73.8787687836559,18.5488140979468],[73.882127497147,18.5494368487627],[73.8847989805431,18.5485793077375],[73.8842438067675,18.5479731928771],[73.8843790487308,18.5451653942126],[73.8851890327479,18.542435512589],[73.8835028551727,18.5313833275786],[73.879066191052,18.5264808101414],[73.8772650396499,18.5215851994974],[73.8720068158103,18.520107009441],[73.8700306832221,18.5219234655007],[73.8699447137777,18.5241528772535],[73.8633323551325,18.5278426771233],[73.8610772923189,18.524408782956],[73.8611159718226,18.5221724893458],[73.8547461178405,18.522348630371],[73.8606140854228,18.5285229245575],[73.8610076847569,18.5321922821482],[73.8645246796703,18.5370703668041],[73.872233117357,18.5406817632233],[73.8775180613383,18.5434476393216],[73.8785429338994,18.5498229067272],[73.8787687836559,18.5488140979468]]]}},{"type":"Feature","properties":{"wardId":14,"name":"Ward 14"},"geometry":{"type":"MultiPolygon","coordinates":[[[[73.9008395835801,18.5411547332046],[73.9116590959907,18.5398927343622],[73.9176789626142,18.5390192696236],[73.9336690911558,18.5358046132923],[73.9321602913645,18.5316318336423],[73.9320460774532,18.5214665751993],[73.9325028299967,18.514514840175],[73.9287844992693,18.5116148343678],[73.925169226699,18.5089551584563],[73.9219025155861,18.5092735355158],[73.9194376181406,18.5125851879019],[73.9168896236854,18.5149741638875],[73.9143579569543,18.5159679800382],[73.9100958802098,18.5150070147823],[73.9083615220054,18.5152086563312],[73.9072248981098,18.515590184723],[73.9062521442153,18.5151741711235],[73.8979915961352,18.5266154413496],[73.8870445058993,18.531233336849],[73.8854321072708,18.5371189549541],[73.8887436139267,18.5436471907652],[73.8978830155887,18.5418801461519],[73.9008395835801,18.5411547332046]]],[[[73.9005193332007,18.532516072259],[73.9006847239209,18.531064302076],[73.9007582318071,18.5305681281167],[73.9009052457805,18.5302005913842],[73.901144879133,18.529934493682],[73.9061668993829,18.5293111528875],[73.9059434367402,18.5296992706049],[73.9061198549474,18.5305695976089],[73.9062161489563,18.5346845373616],[73.9065469321953,18.5353093494471],[73.9068225851942,18.5363752052515],[73.904139567587,18.5366692349974],[73.9042498289666,18.5380474972942],[73.9033493638822,18.5380842498884],[73.903239103402,18.5377167140554],[73.9032023499086,18.5371837857032],[73.9025591610765,18.537000017337],[73.9011625220329,18.5368530033636],[73.9008501164398,18.5364487131378],[73.9007031006676,18.5355298713065],[73.9007031006676,18.5339494638968],[73.9005193332007,18.532516072259]]],[[[73.9095777925404,18.5290305783396],[73.9096228469821,18.5197197244014],[73.9145140679139,18.5196648832346],[73.9154878234054,18.5197527201759],[73.9157731177312,18.5196363306762],[73.9173504397439,18.5196571715082],[73.9173719555175,18.5280173407352],[73.9095777925404,18.5290305783396]]],[[[73.9011013767745,18.524975540962],[73.9009988477204,18.5255309742589],[73.9010285555212,18.5260452121283],[73.9011684390561,18.526528617142],[73.9013435698965,18.5271414777031],[73.9014306703082,18.5280951493594],[73.9016355493098,18.5284615997617],[73.9016562611779,18.5287453330843],[73.9016194835581,18.5288611419952],[73.9013732434886,18.5289008028671],[73.901109970527,18.5287943612295],[73.8996550725617,18.5275689251548],[73.898821879041,18.5271549186601],[73.8981081114241,18.5269829019607],[73.8989150310409,18.5263476453852],[73.8994814052218,18.5254906718813],[73.9011461702426,18.5248499077768],[73.9011013767745,18.524975540962]]]]}},{"type":"Feature","properties":{"wardId":15,"name":"Ward 15"},"geometry":{"type":"Polygon","coordinates":[[[73.957129425666,18.4947874241302],[73.9570421827328,18.5041431786188],[73.954202868799,18.504204233499],[73.9456172017678,18.5036271631156],[73.9439536670282,18.5062771410772],[73.9449831911215,18.5072427638427],[73.944875666053,18.5099789750665],[73.9386514724475,18.5100246333367],[73.9322531616542,18.5102756698863],[73.9323778606917,18.5119337434575],[73.9325469207355,18.5194959498125],[73.9321305597776,18.5262521260349],[73.9329484104409,18.5328388623237],[73.9386679691516,18.5356815806405],[73.9419388627884,18.5408443106165],[73.9456685860366,18.5451870063754],[73.9535515061972,18.5454736140161],[73.957946961583,18.5466377072646],[73.9610159575737,18.5455616471825],[73.9671028216983,18.5434338519834],[73.9717288171786,18.541278762908],[73.9760149934972,18.5339811838846],[73.9894643996623,18.5238447263532],[73.9919279629052,18.5185189088206],[73.9911285006798,18.5117189747509],[73.9927593204864,18.5088567195621],[73.9970345077364,18.503678479878],[73.9951742636815,18.5017827359845],[73.9922444514204,18.4987018322238],[73.9919294881555,18.4944979657087],[73.9896308093145,18.4929700984914],[73.9896698595973,18.4894412936256],[73.9875812853214,18.4875969337471],[73.9867357430323,18.4863494107271],[73.9853782186519,18.4856585809075],[73.9846381768228,18.4850250660974],[73.9835950641923,18.4859466226212],[73.9825768211325,18.484466523508],[73.9813513920635,18.4819455219135],[73.9800806148992,18.4801612836503],[73.9771392554375,18.4811902570374],[73.974232837713,18.4807510254585],[73.9730021663923,18.4809332213325],[73.969995874103,18.4818415432375],[73.965949654113,18.481434972291],[73.9622378937351,18.4861899127139],[73.9637401079453,18.4888629745329],[73.9660226669708,18.4911378810534],[73.9647209387665,18.4925257810002],[73.9568258244524,18.4931919792265],[73.957129425666,18.4947874241302]]]}},{"type":"Feature","properties":{"wardId":16,"name":"Ward 16"},"geometry":{"type":"Polygon","coordinates":[[[73.9584096022178,18.5011142097152],[73.9533312114216,18.4935358921722],[73.9480686192192,18.4881380269059],[73.9450214913327,18.4827923521593],[73.9318409031534,18.4888554453583],[73.9275456882171,18.4934826209095],[73.9283817006377,18.4960187402878],[73.9280718890327,18.4980804340415],[73.9274405294609,18.499320375292],[73.929671829054,18.500645019452],[73.9374311654088,18.5008575480527],[73.9551175908075,18.5018997839507],[73.958643667073,18.5039678534934],[73.9584096022178,18.5011142097152]]]}},{"type":"Feature","properties":{"wardId":17,"name":"Ward 17"},"geometry":{"type":"Polygon","coordinates":[[[73.9114934764184,18.4893576856269],[73.9114291388944,18.4973855146595],[73.9116843001908,18.5024000061536],[73.9150846115721,18.5057781341187],[73.9246945124976,18.5031232119225],[73.924263863015,18.5084499950847],[73.9260453904344,18.5091749876549],[73.9288524749272,18.5131161441604],[73.9323778606917,18.5119337434575],[73.9322531615229,18.5102756700467],[73.9386514724475,18.5100246333367],[73.944875666053,18.5099789750665],[73.9449831910463,18.5072427636466],[73.9439536669365,18.5062771412755],[73.9456172017678,18.5036271631156],[73.954202868799,18.504204233499],[73.9566478237932,18.5041365780777],[73.9543633818996,18.5003316616723],[73.9314533617965,18.501503403072],[73.9278662815865,18.5008182318006],[73.9275237824962,18.4986886524673],[73.9280997892737,18.4973828885111],[73.9278348982684,18.4947189539118],[73.9280518981924,18.4925778876303],[73.9282751686056,18.4897465546396],[73.9282491460126,18.4885165448439],[73.9114934764184,18.4893576856269]]]}},{"type":"Feature","properties":{"wardId":18,"name":"Ward 18"},"geometry":{"type":"Polygon","coordinates":[[[73.9009397528753,18.5230258525369],[73.9070995335541,18.5155851844004],[73.9080780448512,18.5153890839183],[73.9095638439948,18.5148131916674],[73.9133151201968,18.5157461002025],[73.9161009140765,18.5152898675828],[73.9186699324354,18.5140846311721],[73.9214458767299,18.5104613286065],[73.923501526889,18.5089464261053],[73.9247110434251,18.5058860994277],[73.9174431648778,18.5051756575233],[73.9122722834392,18.5027439205955],[73.9110514987277,18.4987296644425],[73.9113750550148,18.4934533811188],[73.9115950327845,18.4839646589419],[73.9081919360996,18.4782495618356],[73.9031213799243,18.4779006264251],[73.9018027867444,18.4773962905338],[73.8964388283135,18.4768469798667],[73.8936614245167,18.4793826455983],[73.8927710343559,18.4874026951783],[73.89348312025,18.488185860789],[73.8951219907874,18.489012753236],[73.8962427573974,18.4910806048861],[73.8971455679137,18.4926154733255],[73.8964927599331,18.4939264978097],[73.8959712961384,18.4961683251083],[73.8983271134057,18.4985947616393],[73.8987729541086,18.5007164907735],[73.8996743418975,18.5043047092949],[73.9031987148489,18.5056381259987],[73.8996557322264,18.5072995650229],[73.8999610394704,18.5081657848232],[73.9001953443398,18.5097278217816],[73.9003302482444,18.5128873956633],[73.8981996300466,18.5153559806171],[73.898149644931,18.5164738317843],[73.8983915967552,18.5186229153218],[73.9006103984416,18.5212404085624],[73.9009397528753,18.5230258525369]]]}},{"type":"Feature","properties":{"wardId":19,"name":"Ward 19"},"geometry":{"type":"Polygon","coordinates":[[[73.8808907485484,18.4773995654782],[73.8867350984578,18.4767258916426],[73.8869626864447,18.478743902284],[73.8900311305868,18.4772728002788],[73.8909603593979,18.4826865188301],[73.8941260002085,18.4799144180686],[73.8947476691019,18.4773649669474],[73.9015487988618,18.4773414264188],[73.902797898292,18.4779935542242],[73.9056530831488,18.4781759706405],[73.9071494539163,18.4756968392307],[73.9053803644611,18.4696685902391],[73.9022539108917,18.4659107940681],[73.8940794085294,18.4647618178359],[73.8895747198484,18.46461617849],[73.8867922318094,18.4629421650949],[73.8858727540182,18.4613365395128],[73.8844791999676,18.4629968237226],[73.8833316229333,18.4657946271451],[73.8815576940168,18.4661952198982],[73.8750059543615,18.4712744820319],[73.8786418063744,18.4718536139532],[73.8799292803121,18.4740741641914],[73.8808907485484,18.4773995654782]]]}},{"type":"Feature","properties":{"wardId":20,"name":"Ward 20"},"geometry":{"type":"Polygon","coordinates":[[[73.8624646198816,18.4844956381556],[73.8653562902571,18.4826872931935],[73.8682037115549,18.483062683835],[73.8721500440442,18.4808894412465],[73.8771962995595,18.4821887972002],[73.8778839219685,18.4795873004833],[73.8772929293682,18.4741007234758],[73.8748537764807,18.4721803952091],[73.8720806608575,18.4695955196584],[73.8699439587759,18.4681233689935],[73.8705648621345,18.464678333783],[73.867514508188,18.4645744383597],[73.8644014581637,18.466865936418],[73.8607842726304,18.4679830672334],[73.8562908521412,18.473457693318],[73.8571587860492,18.4827398920325],[73.8632436846999,18.4894518100425],[73.8625958197746,18.4852916159504],[73.8624646198816,18.4844956381556]]]}},{"type":"Feature","properties":{"wardId":21,"name":"Ward 21"},"geometry":{"type":"Polygon","coordinates":[[[73.8693375347999,18.5000563631534],[73.8749984526976,18.4948515773059],[73.8774684644981,18.4970749784276],[73.8772710794968,18.4935110901647],[73.8790295571685,18.4887501736816],[73.8816122248244,18.4898590368651],[73.8840124218358,18.4896555112929],[73.88961288063,18.4861464519973],[73.8904739157513,18.4829729461316],[73.8904988681581,18.4780846969421],[73.8871732070817,18.4787401428148],[73.886735098039,18.4767258915228],[73.8808907506921,18.4773995663998],[73.8799292803121,18.4740741641914],[73.8786418063744,18.4718536139532],[73.8772929293682,18.4741007234758],[73.8778839219685,18.4795873004833],[73.8771962995595,18.4821887972002],[73.8721500436999,18.4808894411506],[73.8682037115549,18.483062683835],[73.8653562902571,18.4826872931935],[73.8624646198816,18.4844956381556],[73.8631024409806,18.4888885021243],[73.857493436335,18.4903531791575],[73.8604056938137,18.5004129389166],[73.8652114963986,18.5000924530853],[73.8693375347999,18.5000563631534]]]}},{"type":"Feature","properties":{"wardId":22,"name":"Ward 22"},"geometry":{"type":"Polygon","coordinates":[[[73.8724299052875,18.5092862341968],[73.8763609754786,18.5067266698999],[73.8744856434977,18.5057659286548],[73.8747767504468,18.501896340594],[73.8741168737948,18.4997405482877],[73.8756522283093,18.4953718204142],[73.8691880934435,18.4929726971906],[73.8688955241159,18.5024793060912],[73.8671872079286,18.5040533099589],[73.8650581249123,18.5030170585317],[73.8676552844638,18.5060144347186],[73.8683461175793,18.5067957063569],[73.8724299052875,18.5092862341968]]]}},{"type":"Feature","properties":{"wardId":23,"name":"Ward 23"},"geometry":{"type":"Polygon","coordinates":[[[73.8620700681893,18.5187538307088],[73.86298465562,18.517794050569],[73.8636144805398,18.516180280393],[73.8685306790306,18.5168039942568],[73.8700417457637,18.5173104358645],[73.8719960521498,18.5106958907862],[73.8765497509939,18.5095004016607],[73.8756519742163,18.5080545948042],[73.8658540721324,18.5109860168821],[73.8617782736855,18.5130784007243],[73.8584789940611,18.5127930565248],[73.8561840965921,18.51687770521],[73.8589321162396,18.5188004845538],[73.8617309691446,18.5192485606084],[73.8620700681893,18.5187538307088]]]}},{"type":"Feature","properties":{"wardId":24,"name":"Ward 24"},"geometry":{"type":"Polygon","coordinates":[[[73.8701666401774,18.5224184095491],[73.8689841061665,18.5200720543382],[73.8762159253574,18.518408972954],[73.8738787425279,18.5177317268581],[73.873475259944,18.5159521647221],[73.8736699268505,18.513958351824],[73.8755659297097,18.5110918039865],[73.8711467667275,18.5161820814582],[73.869256364788,18.5175560283549],[73.8659194641855,18.5154260307831],[73.8627413738121,18.516382943083],[73.8622012235093,18.5182455567173],[73.8617309695139,18.51924856083],[73.8589321163382,18.5188004843652],[73.8560963327195,18.5201524102771],[73.8609166071557,18.5220639738515],[73.8608295365154,18.5238712486339],[73.8620652056418,18.5271285223451],[73.8696531011558,18.524367123872],[73.8701666401774,18.5224184095491]]]}},{"type":"Feature","properties":{"wardId":25,"name":"Ward 25"},"geometry":{"type":"Polygon","coordinates":[[[73.8429369082511,18.5137390885631],[73.8448634445869,18.5159569375414],[73.8485985759323,18.520579317403],[73.853110316069,18.5216920823001],[73.8560963324896,18.5201524102466],[73.8579493868737,18.5158243826793],[73.8578521059071,18.5118635687027],[73.8590720567726,18.5042443953912],[73.8570638359627,18.502403685787],[73.8539267677651,18.5050767523065],[73.8504236697166,18.5076813398221],[73.8459672447047,18.5107859014137],[73.8437919785526,18.5123523698533],[73.8429369082511,18.5137390885631]]]}},{"type":"Feature","properties":{"wardId":26,"name":"Ward 26"},"geometry":{"type":"Polygon","coordinates":[[[73.8576186434117,18.5126393535037],[73.8612381522663,18.5132213563639],[73.8641561159585,18.5111639388709],[73.8681238949721,18.509671021015],[73.8683511009506,18.5062629409086],[73.8649201550548,18.5061191626393],[73.8656320213487,18.5029869236715],[73.8676649983014,18.5035957132343],[73.8679739043994,18.5011907603717],[73.863664826744,18.4999696172385],[73.8583912408304,18.5011930121203],[73.858599854922,18.5057653081244],[73.8576186434117,18.5126393535037]]]}},{"type":"Feature","properties":{"wardId":27,"name":"Ward 27"},"geometry":{"type":"Polygon","coordinates":[[[73.8507720220197,18.4926674303136],[73.8460421317245,18.4955762283226],[73.8490272094047,18.4961183611771],[73.8498659771065,18.4983591782326],[73.8494828857047,18.5003266577399],[73.8470364620018,18.5012476796667],[73.8453191769193,18.5028705938303],[73.843309769,18.50237131554],[73.838420521701,18.4981793301548],[73.8357900850059,18.4985741519989],[73.8364687064594,18.5048271626674],[73.8373745688189,18.5077111085769],[73.8410930250228,18.5120690198551],[73.8438314001128,18.5128299137584],[73.8449074793572,18.5116457293019],[73.8487812704659,18.5088433609402],[73.8530983658641,18.5058471859615],[73.855891794664,18.503472636269],[73.8583993185988,18.5005467389152],[73.8507720220197,18.4926674303136]]]}},{"type":"Feature","properties":{"wardId":28,"name":"Ward 28"},"geometry":{"type":"Polygon","coordinates":[[[73.8455870078342,18.501231813997],[73.8483765803159,18.5008845695493],[73.8504527626783,18.4995590711486],[73.8494206612347,18.4973600895966],[73.8471746412968,18.4969113009159],[73.8449185111805,18.4951251205279],[73.843209386504,18.4938614822217],[73.8410357682862,18.4914801125173],[73.8402727654759,18.4887025177072],[73.8377907337555,18.4875689915158],[73.8340348896984,18.4878725855514],[73.8309240806276,18.4862129721053],[73.8311768613536,18.4841771913071],[73.8352885116664,18.4833470559339],[73.8372878276764,18.4819574867981],[73.8364870025365,18.4799279085754],[73.8324200157818,18.479873180831],[73.8289491770769,18.4791240658939],[73.82682983479,18.4802792120565],[73.8237013301894,18.4827801192271],[73.8256284826604,18.4840784923596],[73.8279762469138,18.4889474251366],[73.8332900927637,18.4964570956185],[73.8384150724468,18.4976358788591],[73.8421654916713,18.5010125648079],[73.8450935381309,18.502864495045],[73.8455870078342,18.501231813997]]]}},{"type":"Feature","properties":{"wardId":29,"name":"Ward 29"},"geometry":{"type":"Polygon","coordinates":[[[73.8423669203381,18.5144417593709],[73.8400847882825,18.5103918559994],[73.8370395237552,18.5072581773231],[73.8367983219852,18.5017733668474],[73.8348503157895,18.4977143631274],[73.8279762470063,18.4889474255834],[73.8270358718082,18.4897811600726],[73.8211820790465,18.4918382113236],[73.8176437354149,18.4939628337686],[73.8137127085944,18.4940204138635],[73.8137733398248,18.4975867531501],[73.8145635988361,18.5016602672422],[73.8173135675013,18.5025922081361],[73.82114156175,18.5043490976188],[73.8220322333387,18.5072890190471],[73.8227066367197,18.5081695282179],[73.8237014706974,18.5094418391657],[73.824057607504,18.5120665841952],[73.8245540568244,18.5148513664974],[73.8316125351958,18.5148947833894],[73.8363838551206,18.515937204575],[73.8414956470989,18.5176780330826],[73.8423669203381,18.5144417593709]]]}},{"type":"Feature","properties":{"wardId":30,"name":"Ward 30"},"geometry":{"type":"Polygon","coordinates":[[[73.8211820793895,18.4918382117641],[73.8270358718082,18.4897811600726],[73.8268102148196,18.4865047041289],[73.8243010037885,18.4829562113601],[73.8199461258131,18.482732362009],[73.8152677185305,18.4805705231112],[73.8112050680596,18.4783216748056],[73.8019241632641,18.4830551534071],[73.8035330184352,18.483766108445],[73.8046563745572,18.4836387571173],[73.8074494269084,18.4915577303846],[73.8162027490577,18.4936285901874],[73.8183627137684,18.4927672294242],[73.8211820793895,18.4918382117641]]]}},{"type":"Feature","properties":{"wardId":31,"name":"Ward 31"},"geometry":{"type":"Polygon","coordinates":[[[73.8150013837831,18.4931977275918],[73.8074494269084,18.4915577303846],[73.804966705265,18.4920819863779],[73.8041294167085,18.4928337719749],[73.8019991926511,18.4959438179546],[73.8019010481781,18.5024134650194],[73.8013415020515,18.5073729953345],[73.8038200597848,18.5129662862585],[73.8061589991726,18.5073551111514],[73.8111254265958,18.5091105007996],[73.8142999189841,18.5096637107096],[73.8202811677271,18.5105272140455],[73.8227066367197,18.5081695282179],[73.8220322333494,18.5072890192765],[73.8211415621042,18.5043490972727],[73.8173135675333,18.5025922079286],[73.8145635988361,18.5016602672422],[73.8137733398248,18.4975867531501],[73.8137127085944,18.4940204138635],[73.8150013837831,18.4931977275918]]]}},{"type":"Feature","properties":{"wardId":32,"name":"Ward 32"},"geometry":{"type":"Polygon","coordinates":[[[73.7995309919085,18.466335091689],[73.794416536469,18.4627514938044],[73.7911800582167,18.4621448989202],[73.7856604955973,18.462788023162],[73.7831312738666,18.4619652092587],[73.7823463436327,18.4636756011035],[73.7822843265524,18.4664118992675],[73.7833628772068,18.4671408488314],[73.7834179493034,18.4696289760666],[73.784543020061,18.4701675227961],[73.7854722566333,18.4692709531442],[73.7868747753791,18.4694036698963],[73.7942621152604,18.4747049629154],[73.7931733366717,18.4780071169487],[73.7925502455612,18.478984715215],[73.7860257944628,18.4800404942648],[73.7841954419673,18.4800543429866],[73.7785301145306,18.4805447544421],[73.7780263817391,18.4817965792843],[73.7770417384337,18.485716933923],[73.7752723219062,18.488625053894],[73.7748119997948,18.4906345286053],[73.7768719947204,18.495853181981],[73.7808901971106,18.4980204583456],[73.7854554677035,18.4998920651966],[73.7913856682655,18.4964590634331],[73.7932055724706,18.4952595810345],[73.7972701636202,18.492578324168],[73.7985706066864,18.4924764061047],[73.8011712541253,18.4934537553167],[73.8018698226784,18.4935135559743],[73.8045067652183,18.4925088363617],[73.8053538482348,18.4922242702657],[73.8044283821943,18.4833994776762],[73.8026917954222,18.4835910455674],[73.8042766569747,18.4803740481087],[73.8030530480482,18.4687945629353],[73.7995309919085,18.466335091689]]]}},{"type":"Feature","properties":{"wardId":33,"name":"Ward 33"},"geometry":{"type":"Polygon","coordinates":[[[73.7740768649375,18.488833042432],[73.7765809707185,18.4861506629389],[73.7773956697183,18.4833391741739],[73.7777562453575,18.4806088889318],[73.7836311839357,18.4802106463338],[73.7854412460651,18.480222261856],[73.792258204513,18.4790237944695],[73.7931377587736,18.4783011564424],[73.7955507554177,18.47572441233],[73.7882637404959,18.4703805918505],[73.7859509217188,18.4695360445378],[73.7846360320774,18.4699570442878],[73.7835681315187,18.4699647491632],[73.7835856762587,18.4673891641148],[73.7824683356108,18.4666227015657],[73.7820407560128,18.4637464218775],[73.7830063761899,18.46201307389],[73.7842018531453,18.4625474601705],[73.7907796741694,18.4622165456406],[73.7935496635091,18.4624196953255],[73.7986756624697,18.4655030811736],[73.8001185349074,18.466004911519],[73.7995913908491,18.4635722318984],[73.8009826959625,18.4621220126463],[73.8009539055502,18.4614017538149],[73.8006589314849,18.4604571506588],[73.7993040278128,18.4567527538914],[73.7970950830587,18.4563416206552],[73.7957028615597,18.4546144968267],[73.7958536341844,18.4515117433144],[73.8014727083441,18.450603405019],[73.8044576695107,18.447148574671],[73.8070879498297,18.4472743112794],[73.80983147703,18.4460160888107],[73.8093837669084,18.4453028796229],[73.8125864194898,18.4423703111462],[73.8147582005507,18.4397454098591],[73.8197299835527,18.4320941094962],[73.8221551875129,18.4233714774248],[73.8204533202187,18.4153902200278],[73.8216498506408,18.4026046028225],[73.8207209493125,18.3891881545098],[73.8027571227431,18.3859574254948],[73.7958098338569,18.3927626214978],[73.7925283641927,18.403823881567],[73.7849257357342,18.4090070018718],[73.7820573489676,18.4098900848597],[73.7783116933301,18.4104788080506],[73.7796199649895,18.4116871425476],[73.7815224106309,18.4118321429392],[73.7785686233434,18.4150185119949],[73.7774173436356,18.4161872358524],[73.7690720208572,18.4189553212312],[73.7645788325472,18.4201934556635],[73.7625262990496,18.4234903019359],[73.7615585403944,18.4265233123011],[73.7575932244479,18.4324005590386],[73.7489622607998,18.4355437849178],[73.7422588033012,18.4409609322014],[73.7393306161151,18.4428015071838],[73.7369357772644,18.4455519118914],[73.7395920616245,18.4503311313767],[73.7413594317924,18.4532174874971],[73.7435660299485,18.4561875066482],[73.7430117660803,18.458279068924],[73.7421855984867,18.4594503441581],[73.7419659849423,18.4606111611762],[73.7401254099597,18.4621484595838],[73.7375084466577,18.4642462964295],[73.7354938537584,18.4649356753412],[73.7348914842547,18.4665687677346],[73.7343560440963,18.468108157066],[73.7334257170233,18.4703570053716],[73.7322946001158,18.4722845897622],[73.7324598334546,18.4744991361262],[73.735199779946,18.4795502593371],[73.737249511156,18.4812235091576],[73.7368573437915,18.4855883381314],[73.7388835442403,18.4882027914258],[73.7443018417566,18.485704053899],[73.7447098470819,18.4845448259831],[73.7466931165941,18.4845533938241],[73.7484184551477,18.4862537168357],[73.7497858176615,18.4871620572832],[73.7507110581689,18.4891324763827],[73.7529984577127,18.4887555264464],[73.7552515894893,18.4880532971221],[73.7565366451501,18.4871631283758],[73.7598965312,18.485275702312],[73.7601642512792,18.4841245062411],[73.761750491692,18.4837697767538],[73.7642437388575,18.4831372889548],[73.7670706165159,18.4841830700928],[73.7705304424261,18.4859490499089],[73.7740768649375,18.488833042432]]]}},{"type":"Feature","properties":{"wardId":34,"name":"Ward 34"},"geometry":{"type":"Polygon","coordinates":[[[73.8360429363174,18.4375894891862],[73.8357070140602,18.4357893622058],[73.8349794952875,18.4306381629542],[73.8338227501145,18.428413838357],[73.8305993023275,18.4260671251681],[73.8289439805359,18.4248272459725],[73.8278792413882,18.4217373217753],[73.8257486853063,18.4189343563999],[73.8204533202187,18.4153902200278],[73.8221551875129,18.4233714774248],[73.8197299835527,18.4320941094962],[73.8147582005507,18.4397454098591],[73.8125864194898,18.4423703111462],[73.8093837669084,18.4453028796229],[73.80983147703,18.4460160888107],[73.8070879498297,18.4472743112794],[73.8044576695107,18.447148574671],[73.8014727083441,18.450603405019],[73.7958536341844,18.4515117433144],[73.7957028615597,18.4546144968267],[73.7970950830587,18.4563416206552],[73.7993040278128,18.4567527538914],[73.8006589316277,18.4604571502112],[73.8009539059173,18.4614017534467],[73.8009826961977,18.4621220125437],[73.7995913906223,18.4635722317902],[73.800118534993,18.4660049111129],[73.7991466873699,18.4668919346152],[73.8079193307004,18.4715328922109],[73.8111772668266,18.4709406217879],[73.8128018145088,18.4717344060211],[73.813572136173,18.4710498990749],[73.8134266218581,18.4686978238477],[73.8157465038847,18.4664031476939],[73.8176344489196,18.4668500610745],[73.8200638404564,18.466191700439],[73.8235097329251,18.4664890751949],[73.8261289785442,18.464830911341],[73.8317279074171,18.4645295594001],[73.8276914848959,18.4618835173014],[73.8259403151482,18.4583620687877],[73.8287753622587,18.4563827531307],[73.8281103649654,18.4542777660604],[73.834088614709,18.4514789572103],[73.8348065198743,18.4457157170684],[73.8353716192854,18.4399741577933],[73.8360429363174,18.4375894891862]]]}},{"type":"Feature","properties":{"wardId":35,"name":"Ward 35"},"geometry":{"type":"Polygon","coordinates":[[[73.8237013294513,18.4827801204014],[73.8268298350085,18.4802792124021],[73.8289491769051,18.479124065968],[73.8324200153463,18.4798731804927],[73.8364870023308,18.4799279084063],[73.8372878273295,18.4819574872134],[73.8352885118085,18.4833470560199],[73.8311768616419,18.484177190914],[73.8309240808671,18.48621297203],[73.8340348896984,18.4878725855514],[73.8377907337555,18.4875689906165],[73.8413116146394,18.4872171128796],[73.8423211459042,18.4861071498251],[73.8428556462712,18.4839871168122],[73.8441948600049,18.4816460969899],[73.8437564908694,18.4765386474407],[73.8440372160448,18.4705311366028],[73.8417966819713,18.4647916318284],[73.8374050936703,18.4647271522364],[73.8349908609396,18.4653166749247],[73.8328629343504,18.464978205361],[73.8243142668266,18.4659421602208],[73.821688209119,18.4661168966346],[73.8187287840767,18.466247065622],[73.816806915407,18.4662851746211],[73.8139335681171,18.467927709407],[73.8139269719194,18.4706279171598],[73.813071837693,18.4710762244777],[73.8117765925161,18.4708795719723],[73.8100193949683,18.4714164746782],[73.8072811092361,18.4720850967498],[73.8118007448086,18.4789842817992],[73.8165197277033,18.481192136308],[73.8213826111187,18.4828444696965],[73.8237013294513,18.4827801204014]]]}},{"type":"Feature","properties":{"wardId":36,"name":"Ward 36"},"geometry":{"type":"Polygon","coordinates":[[[73.8471980664566,18.4926959014574],[73.857493436297,18.490353179059],[73.8575248087971,18.4847896232328],[73.8562422632493,18.4745602090006],[73.8576288526896,18.4683294478458],[73.8515746760306,18.467843197006],[73.8480703885377,18.4685495011586],[73.8440372160448,18.4705311366028],[73.8437564917688,18.4765386465415],[73.8441948600049,18.4816460969899],[73.8428556453719,18.4839871168122],[73.8423211459042,18.4861071498251],[73.8413116146394,18.4872171137789],[73.8406743460444,18.490402540345],[73.8423877541916,18.4929191078306],[73.8439118838264,18.4944740257557],[73.8460421317891,18.4955762285601],[73.8471980664566,18.4926959014574]]]}},{"type":"Feature","properties":{"wardId":37,"name":"Ward 37"},"geometry":{"type":"Polygon","coordinates":[[[73.8580856401808,18.4635110680475],[73.8584029942351,18.456895909519],[73.8582654845301,18.4523427433171],[73.8584858049703,18.4483569591935],[73.8551776167837,18.4491998174901],[73.8507172044787,18.4569828234116],[73.8491650727433,18.4569266604764],[73.8463279086299,18.4576813356055],[73.8437321525112,18.4587595722129],[73.84150520559,18.4612016408443],[73.8421914484351,18.46312483042],[73.8447109557462,18.4684537737228],[73.8491674607098,18.4683765741197],[73.8519536539381,18.4683274477536],[73.8576288526896,18.4683294478458],[73.8580856401808,18.4635110680475]]]}},{"type":"Feature","properties":{"wardId":38,"name":"Ward 38"},"geometry":{"type":"Polygon","coordinates":[[[73.8606105356205,18.4646513098576],[73.8609411796457,18.4619491131886],[73.8626905965989,18.4598756664583],[73.8627022637986,18.4582640349574],[73.8649929260828,18.4552209593799],[73.86291826142,18.4502558099672],[73.8637133113203,18.4467453895881],[73.8640896677041,18.4450818902172],[73.8649007810708,18.4429718819795],[73.8673028569104,18.4420439318563],[73.8691520976085,18.4407365144522],[73.8699380438168,18.4393462900106],[73.8716880953071,18.4385147314771],[73.8740687247515,18.4379005338647],[73.8762186164634,18.4393584520287],[73.8782923006694,18.4326302001255],[73.8812192102984,18.4251028529144],[73.8847826596921,18.4191957900538],[73.8900601377651,18.4057835501708],[73.8758874203683,18.3963800338117],[73.8693367531888,18.4004433084122],[73.8512742475797,18.4020004403478],[73.8372704381803,18.3948306458178],[73.8235833618828,18.3920085480561],[73.8214949763434,18.4040143449617],[73.8244672068005,18.4174750643044],[73.8275436789725,18.4208954456983],[73.8287176973908,18.4244793591085],[73.8301750941424,18.4257143392874],[73.8333716548823,18.4278290738732],[73.8347594216314,18.4298702310928],[73.8356104801101,18.4349201227916],[73.8361949254933,18.4369932597184],[73.8350326454289,18.4428032344154],[73.8346991418168,18.4478378692957],[73.831048754833,18.4516026652011],[73.8281727316207,18.4547309266723],[73.8286426394313,18.4564128469017],[73.8260355054909,18.4585710657544],[73.8305131550617,18.4619144965219],[73.832259735054,18.4649038069227],[73.8347382082828,18.4650640222463],[73.8370541884774,18.4649868236515],[73.8421914496709,18.4631248293196],[73.84150520559,18.4612016408443],[73.8437321523947,18.4587595723235],[73.8463279086299,18.4576813356055],[73.8491650727433,18.4569266604765],[73.8507172044787,18.4569828234116],[73.8551776167837,18.4491998174901],[73.8584858049703,18.4483569591935],[73.8582654845301,18.4523427433171],[73.8584029942351,18.456895909519],[73.8580856401808,18.4635110680477],[73.8614626000145,18.4664724362577],[73.8606105356205,18.4646513098576]]]}},{"type":"Feature","properties":{"wardId":39,"name":"Ward 39"},"geometry":{"type":"MultiPolygon","coordinates":[[[[73.8630972631337,18.4491863863416],[73.8639207772551,18.4480885154026],[73.8633009834461,18.4487240013701],[73.8630972631337,18.4491863863416]]],[[[73.8630972631337,18.4491863863416],[73.8651646303169,18.4551457527308],[73.8630936339491,18.4577640025504],[73.8629064367209,18.4594028340348],[73.8609480836047,18.4609027013384],[73.8607351154939,18.4643545597636],[73.8632674990174,18.4667783318849],[73.8662723721656,18.4648245290694],[73.8694751507416,18.4645442654623],[73.8697800779905,18.4677055673081],[73.872082416466,18.4693269580474],[73.873702812151,18.4721014252081],[73.8764884783515,18.4668892222602],[73.8776834748692,18.4620185744291],[73.873492925681,18.4588424489575],[73.8719421154632,18.4586384870972],[73.868454324186,18.4574358689944],[73.8684205260506,18.4539272014031],[73.8678054869246,18.4523338423662],[73.8658070388847,18.4516766803353],[73.8632169579893,18.4497565350302],[73.8630972631337,18.4491863863416]]]]}},{"type":"Feature","properties":{"wardId":40,"name":"Ward 40"},"geometry":{"type":"Polygon","coordinates":[[[73.8916362919633,18.4093046278373],[73.8832145491865,18.4210928745547],[73.8805625942988,18.4269752873148],[73.8784993568426,18.4330198394446],[73.8758657402234,18.4399658497969],[73.8737971636527,18.4377481215233],[73.8711200121506,18.4388066716917],[73.8696274812569,18.4395203744231],[73.8684833197293,18.4413231633995],[73.866242189212,18.4420947152142],[73.8640369783931,18.4438022740196],[73.8639767614969,18.4454281390688],[73.8639207772551,18.4480885154026],[73.864040900368,18.4511752240626],[73.8671750190364,18.4517143095147],[73.8678217785202,18.4528617414624],[73.8689598207361,18.45401838546],[73.8684893622463,18.4583687631641],[73.8721219794439,18.4585569398783],[73.8746711084672,18.4592920398402],[73.877511806111,18.4646436182882],[73.8816553078691,18.4670755379256],[73.8827390800414,18.4661842892359],[73.8844614217974,18.4644887429255],[73.8852217387758,18.4612341205469],[73.8866522169091,18.4624711346093],[73.8880285404662,18.4648025971244],[73.893065826667,18.4647219220793],[73.899766738361,18.4649695419637],[73.9029715819281,18.4641242227344],[73.9043039566805,18.4633757072812],[73.9076485946364,18.4601442385585],[73.9058870948139,18.4582248051508],[73.9026793819081,18.4597623868984],[73.9004908758899,18.4601693083668],[73.8992079655357,18.4584355082592],[73.8982386335467,18.4528431992903],[73.8988249851437,18.4436273768541],[73.9003603591665,18.441202594862],[73.901979614881,18.4354526411159],[73.9013428147055,18.4319271795248],[73.9021516732863,18.4260775729716],[73.9038145083825,18.4131626167233],[73.9032787861846,18.4105851685044],[73.8972507552403,18.4097762786026],[73.8916362919633,18.4093046278373]]]}},{"type":"Feature","properties":{"wardId":41,"name":"Ward 41"},"geometry":{"type":"Polygon","coordinates":[[[73.9318409031534,18.4888554453583],[73.9442120626125,18.479918662777],[73.9405266049741,18.4673796755843],[73.9381462611105,18.4661790878162],[73.9385300550965,18.458066790231],[73.9356991475307,18.4562855593506],[73.9394559173296,18.4465790354114],[73.9429623658108,18.4464551450037],[73.9449497598932,18.4461062793276],[73.9446758364065,18.4437197098215],[73.945296896678,18.4425221473014],[73.9452825789194,18.4419137372969],[73.9470528177309,18.4398119979364],[73.9479961827105,18.4376260122966],[73.9473916075055,18.4369298521404],[73.9489578336483,18.4357837754711],[73.9520830244266,18.4340666104534],[73.9610388024403,18.4352010857448],[73.9613923451224,18.4342078027028],[73.9579363423049,18.4230368367756],[73.9525598140452,18.4140454147997],[73.9441949777155,18.4119912251847],[73.9389321580657,18.4111985695653],[73.9353627806935,18.4116102000875],[73.9332055318477,18.4131686268867],[73.929126302919,18.4127500518745],[73.9250227247031,18.4122113652153],[73.9205518760959,18.4083893452322],[73.9145440027845,18.4068767706326],[73.9043977256753,18.4086528173057],[73.9036446279129,18.4112010987893],[73.9020197285176,18.4172589299579],[73.9021570332194,18.4264996037835],[73.9013702412205,18.4326715924803],[73.9012757521576,18.4362569648933],[73.8997278022661,18.4419076943924],[73.8980538667581,18.4443901703953],[73.8985801945728,18.4544396645109],[73.8992795940154,18.4590233646196],[73.9012061632287,18.460293341096],[73.9034470503599,18.4595510342114],[73.9083264022384,18.4577247938768],[73.9075184029292,18.4603890151018],[73.9039435760167,18.463403087689],[73.9029160369784,18.4647671799248],[73.9053803644611,18.4696685902391],[73.9071494537969,18.475696839362],[73.9115950327845,18.4839646589419],[73.9139002172522,18.4893309649664],[73.9285808917793,18.4886661315451],[73.9282734859073,18.4900171706371],[73.9318409031534,18.4888554453583]]]}}],"meta":{"source":"OpenCity \u2014 PMC Electoral Wards 2025 (final_41wardboundary)","note":"Boundary layer used for PMC General Election Jan 2026 (41 wards)","url":"https://data.opencity.in/dataset/pune-wards-info","retrieved":"2026-08-06"}}